{
  "type": "FeatureCollection",
  "features": [
    {
      "type": "Feature",
      "properties": {
        "norad_id": 29486,
        "name": "GPS BIIRM-2 (PRN 31)",
        "group": "gps-ops",
        "lat": -34.54935890868389,
        "lon": 129.22644255769526,
        "alt_km": 20214.910489714843,
        "timestamp": "2025-12-19T22:41:52.650324+00:00",
        "meta_object_name": "GPS BIIRM-2 (PRN 31)",
        "meta_object_id": "2006-042A",
        "meta_epoch": "2025-12-19T11:20:28.184352",
        "meta_mean_motion": 2.00553919,
        "meta_eccentricity": 0.0107309,
        "meta_inclination": 54.695,
        "meta_ra_of_asc_node": 158.4736,
        "meta_arg_of_pericenter": 52.1217,
        "meta_mean_anomaly": 283.3875,
        "meta_ephemeris_type": 0,
        "meta_classification_type": "U",
        "meta_norad_cat_id": 29486,
        "meta_element_set_no": 999,
        "meta_rev_at_epoch": 14078,
        "meta_bstar": 0,
        "meta_mean_motion_dot": 6.9e-07,
        "meta_mean_motion_ddot": 0,
        "tle_line1": "1 29486U 06042A   25353.47254843  .00000069  00000+0  00000+0 0  9999",
        "tle_line2": "2 29486  54.6950 158.4736 0107309  52.1217 283.3875  2.00553919140782"
      },
      "geometry": {
        "type": "Point",
        "coordinates": [
          129.22644255769526,
          -34.54935890868389
        ]
      }
    },
    {
      "type": "Feature",
      "properties": {
        "norad_id": 29601,
        "name": "GPS BIIRM-3 (PRN 12)",
        "group": "gps-ops",
        "lat": 11.649209918434678,
        "lon": -130.5630688896449,
        "alt_km": 20110.597811773296,
        "timestamp": "2025-12-19T22:41:52.650336+00:00",
        "meta_object_name": "GPS BIIRM-3 (PRN 12)",
        "meta_object_id": "2006-052A",
        "meta_epoch": "2025-12-18T22:17:39.799104",
        "meta_mean_motion": 2.00574079,
        "meta_eccentricity": 0.0087942,
        "meta_inclination": 54.9692,
        "meta_ra_of_asc_node": 221.1525,
        "meta_arg_of_pericenter": 87.5066,
        "meta_mean_anomaly": 273.5974,
        "meta_ephemeris_type": 0,
        "meta_classification_type": "U",
        "meta_norad_cat_id": 29601,
        "meta_element_set_no": 999,
        "meta_rev_at_epoch": 13979,
        "meta_bstar": 0,
        "meta_mean_motion_dot": 7.7e-07,
        "meta_mean_motion_ddot": 0,
        "tle_line1": "1 29601U 06052A   25352.92893286  .00000077  00000+0  00000+0 0  9997",
        "tle_line2": "2 29601  54.9692 221.1525 0087942  87.5066 273.5974  2.00574079139795"
      },
      "geometry": {
        "type": "Point",
        "coordinates": [
          -130.5630688896449,
          11.649209918434678
        ]
      }
    },
    {
      "type": "Feature",
      "properties": {
        "norad_id": 32260,
        "name": "GPS BIIRM-4 (PRN 15)",
        "group": "gps-ops",
        "lat": 18.502442187118046,
        "lon": -106.61560620868356,
        "alt_km": 20036.2411547198,
        "timestamp": "2025-12-19T22:41:52.650348+00:00",
        "meta_object_name": "GPS BIIRM-4 (PRN 15)",
        "meta_object_id": "2007-047A",
        "meta_epoch": "2025-12-19T17:36:20.111040",
        "meta_mean_motion": 2.00564307,
        "meta_eccentricity": 0.0164067,
        "meta_inclination": 53.9598,
        "meta_ra_of_asc_node": 87.4697,
        "meta_arg_of_pericenter": 85.3347,
        "meta_mean_anomaly": 276.5368,
        "meta_ephemeris_type": 0,
        "meta_classification_type": "U",
        "meta_norad_cat_id": 32260,
        "meta_element_set_no": 999,
        "meta_rev_at_epoch": 13321,
        "meta_bstar": 0,
        "meta_mean_motion_dot": -3.5e-07,
        "meta_mean_motion_ddot": 0,
        "tle_line1": "1 32260U 07047A   25353.73356610 -.00000035  00000+0  00000+0 0  9997",
        "tle_line2": "2 32260  53.9598  87.4697 0164067  85.3347 276.5368  2.00564307133213"
      },
      "geometry": {
        "type": "Point",
        "coordinates": [
          -106.61560620868356,
          18.502442187118046
        ]
      }
    },
    {
      "type": "Feature",
      "properties": {
        "norad_id": 32384,
        "name": "GPS BIIRM-5 (PRN 29)",
        "group": "gps-ops",
        "lat": -52.51226066479726,
        "lon": -143.64364329681894,
        "alt_km": 20232.8607260269,
        "timestamp": "2025-12-19T22:41:52.650360+00:00",
        "meta_object_name": "GPS BIIRM-5 (PRN 29)",
        "meta_object_id": "2007-062A",
        "meta_epoch": "2025-12-19T04:08:10.010976",
        "meta_mean_motion": 2.00577702,
        "meta_eccentricity": 0.00322663,
        "meta_inclination": 55.1765,
        "meta_ra_of_asc_node": 281.388,
        "meta_arg_of_pericenter": 162.2119,
        "meta_mean_anomaly": 283.9132,
        "meta_ephemeris_type": 0,
        "meta_classification_type": "U",
        "meta_norad_cat_id": 32384,
        "meta_element_set_no": 999,
        "meta_rev_at_epoch": 13190,
        "meta_bstar": 0,
        "meta_mean_motion_dot": -3.8e-07,
        "meta_mean_motion_ddot": 0,
        "tle_line1": "1 32384U 07062A   25353.17233809 -.00000038  00000+0  00000+0 0  9996",
        "tle_line2": "2 32384  55.1765 281.3880 0032266 162.2119 283.9132  2.00577702131904"
      },
      "geometry": {
        "type": "Point",
        "coordinates": [
          -143.64364329681894,
          -52.51226066479726
        ]
      }
    },
    {
      "type": "Feature",
      "properties": {
        "norad_id": 32711,
        "name": "GPS BIIRM-6 (PRN 07)",
        "group": "gps-ops",
        "lat": -21.945929929004524,
        "lon": -6.189794186065936,
        "alt_km": 19755.343005071605,
        "timestamp": "2025-12-19T22:41:52.650371+00:00",
        "meta_object_name": "GPS BIIRM-6 (PRN 07)",
        "meta_object_id": "2008-012A",
        "meta_epoch": "2025-12-19T15:41:26.858112",
        "meta_mean_motion": 2.00565937,
        "meta_eccentricity": 0.0202735,
        "meta_inclination": 54.4779,
        "meta_ra_of_asc_node": 157.0969,
        "meta_arg_of_pericenter": 245.0276,
        "meta_mean_anomaly": 112.8468,
        "meta_ephemeris_type": 0,
        "meta_classification_type": "U",
        "meta_norad_cat_id": 32711,
        "meta_element_set_no": 999,
        "meta_rev_at_epoch": 13015,
        "meta_bstar": 0,
        "meta_mean_motion_dot": 6.7e-07,
        "meta_mean_motion_ddot": 0,
        "tle_line1": "1 32711U 08012A   25353.65378308  .00000067  00000+0  00000+0 0  9994",
        "tle_line2": "2 32711  54.4779 157.0969 0202735 245.0276 112.8468  2.00565937130151"
      },
      "geometry": {
        "type": "Point",
        "coordinates": [
          -6.189794186065936,
          -21.945929929004524
        ]
      }
    },
    {
      "type": "Feature",
      "properties": {
        "norad_id": 35752,
        "name": "GPS BIIRM-8 (PRN 05)",
        "group": "gps-ops",
        "lat": -38.7271478648027,
        "lon": -112.86615631113195,
        "alt_km": 20302.023079067534,
        "timestamp": "2025-12-19T22:41:52.650382+00:00",
        "meta_object_name": "GPS BIIRM-8 (PRN 05)",
        "meta_object_id": "2009-043A",
        "meta_epoch": "2025-12-18T04:21:14.473728",
        "meta_mean_motion": 2.00565462,
        "meta_eccentricity": 0.00516833,
        "meta_inclination": 56.0947,
        "meta_ra_of_asc_node": 34.5684,
        "meta_arg_of_pericenter": 81.8123,
        "meta_mean_anomaly": 312.8651,
        "meta_ephemeris_type": 0,
        "meta_classification_type": "U",
        "meta_norad_cat_id": 35752,
        "meta_element_set_no": 999,
        "meta_rev_at_epoch": 11973,
        "meta_bstar": 0,
        "meta_mean_motion_dot": -7.2e-07,
        "meta_mean_motion_ddot": 0,
        "tle_line1": "1 35752U 09043A   25352.18141752 -.00000072  00000+0  00000+0 0  9992",
        "tle_line2": "2 35752  56.0947  34.5684 0051683  81.8123 312.8651  2.00565462119738"
      },
      "geometry": {
        "type": "Point",
        "coordinates": [
          -112.86615631113195,
          -38.7271478648027
        ]
      }
    },
    {
      "type": "Feature",
      "properties": {
        "norad_id": 36585,
        "name": "GPS BIIF-1  (PRN 25)",
        "group": "gps-ops",
        "lat": -11.943822837844968,
        "lon": -152.95029426543962,
        "alt_km": 20121.695009117393,
        "timestamp": "2025-12-19T22:41:52.650394+00:00",
        "meta_object_name": "GPS BIIF-1  (PRN 25)",
        "meta_object_id": "2010-022A",
        "meta_epoch": "2025-12-19T06:21:16.820064",
        "meta_mean_motion": 2.00553606,
        "meta_eccentricity": 0.0126373,
        "meta_inclination": 54.2991,
        "meta_ra_of_asc_node": 215.8107,
        "meta_arg_of_pericenter": 65.1538,
        "meta_mean_anomaly": 149.9258,
        "meta_ephemeris_type": 0,
        "meta_classification_type": "U",
        "meta_norad_cat_id": 36585,
        "meta_element_set_no": 999,
        "meta_rev_at_epoch": 11398,
        "meta_bstar": 0,
        "meta_mean_motion_dot": 8.2e-07,
        "meta_mean_motion_ddot": 0,
        "tle_line1": "1 36585U 10022A   25353.26477801  .00000082  00000+0  00000+0 0  9993",
        "tle_line2": "2 36585  54.2991 215.8107 0126373  65.1538 149.9258  2.00553606113980"
      },
      "geometry": {
        "type": "Point",
        "coordinates": [
          -152.95029426543962,
          -11.943822837844968
        ]
      }
    }
  ]
}